{"fetched_at":"2026-03-29T16:36:15Z","count":15609,"tles":[{"name":"STARLINK-33983","line1":"1 63948U 25098Y   26087.78639385  .00007080  00000+0  60041-3 0  9994","line2":"2 63948  70.0006 226.2751 0003151 273.8754  86.2045 14.98341506 49410","category":"Starlink"}]}